[Satellite]
VERSION=1.1
NAME=IRIDIUM 130 [+]
NICKNAME=IRIDIUM 130 [+]
TLE1=1 43073U 17083D   19317.40195027  .00000074  00000-0  19300-4 0  9993
TLE2=2 43073  86.3997 248.2262 0002270  81.4894 278.6559 14.34217689 99007
STATUS=0
